{"type":"FeatureCollection","source":"OpenStreetMap building footprints, local campus extract; only polygons containing the catalog building pin. \u00a9 OpenStreetMap contributors, ODbL.","features":[{"type":"Feature","properties":{"code":"MANGO","osm_way":333597679},"geometry":{"type":"Polygon","coordinates":[[[-80.3766449,25.7572587],[-80.3766465,25.7575431],[-80.3767026,25.7574962],[-80.3767148,25.7575121],[-80.376727,25.757528],[-80.3766902,25.7575472],[-80.3772681,25.7575402],[-80.3772676,25.7573885],[-80.3772675,25.7573668],[-80.3772672,25.757257],[-80.3770093,25.7572577],[-80.3766449,25.7572587]]]}},{"type":"Feature","properties":{"code":"RB","osm_way":112681040},"geometry":{"type":"Polygon","coordinates":[[[-80.3762147,25.7575391],[-80.3762016,25.7575274],[-80.3761881,25.7575395],[-80.3761256,25.7575966],[-80.3760615,25.7575393],[-80.3760502,25.7575295],[-80.3760359,25.7575425],[-80.3757625,25.757546],[-80.3757603,25.7574068],[-80.3758611,25.7574055],[-80.3758603,25.7573493],[-80.3759386,25.7572754],[-80.3760033,25.7572737],[-80.3760817,25.7573451],[-80.3761224,25.7573433],[-80.3761509,25.7573435],[-80.3761501,25.7573126],[-80.3762961,25.7573094],[-80.376484,25.7573052],[-80.3764902,25.757533],[-80.3762147,25.7575391]]]}},{"type":"Feature","properties":{"code":"CBC","osm_way":112681031},"geometry":{"type":"Polygon","coordinates":[[[-80.3774293,25.7581554],[-80.3774589,25.7577389],[-80.3774645,25.7576605],[-80.3774212,25.757661],[-80.3765237,25.7576724],[-80.3767347,25.7577912],[-80.3772579,25.7578268],[-80.3772607,25.757844],[-80.3773035,25.7581095],[-80.3774293,25.7581554]]]}},{"type":"Feature","properties":{"code":"GL","osm_way":112681081},"geometry":{"type":"Polygon","coordinates":[[[-80.3743574,25.7576262],[-80.3743613,25.7570996],[-80.3741783,25.7570985],[-80.3741785,25.757065],[-80.3742244,25.7570652],[-80.3742247,25.7570192],[-80.3742315,25.7570193],[-80.3742325,25.7569752],[-80.3742333,25.7569403],[-80.3742337,25.756924],[-80.3742241,25.7569238],[-80.3742244,25.7568809],[-80.3741741,25.7568806],[-80.3741744,25.7568367],[-80.3741239,25.7568364],[-80.3741241,25.7568026],[-80.3741112,25.7568025],[-80.3741129,25.756573],[-80.3740774,25.7565728],[-80.3737302,25.7565707],[-80.3736462,25.7565702],[-80.3736452,25.7566982],[-80.373645,25.7567212],[-80.3736442,25.7568337],[-80.3735882,25.7568333],[-80.3735879,25.7568784],[-80.3735352,25.7568781],[-80.3735355,25.7569217],[-80.3735351,25.7569369],[-80.3735341,25.7569822],[-80.3735333,25.7570156],[-80.3735338,25.7570616],[-80.373586,25.7570619],[-80.3735857,25.757098],[-80.3733274,25.7570964],[-80.3733253,25.7573933],[-80.3733236,25.7576207],[-80.3737376,25.7576231],[-80.3737377,25.7576058],[-80.3737379,25.7575812],[-80.3737842,25.7575815],[-80.3737845,25.7575378],[-80.3738238,25.757538],[-80.3738777,25.7575384],[-80.373927,25.7575387],[-80.3739675,25.7575389],[-80.3739672,25.7575823],[-80.3740188,25.7575826],[-80.3740186,25.7576053],[-80.3740185,25.7576242],[-80.3743574,25.7576262]]]}},{"type":"Feature","properties":{"code":"PC","osm_way":112682393},"geometry":{"type":"Polygon","coordinates":[[[-80.3741933,25.7557516],[-80.3741945,25.755727],[-80.374195,25.7556172],[-80.3741975,25.7554166],[-80.3741348,25.755416],[-80.3741354,25.755367],[-80.3741366,25.7552763],[-80.3740749,25.7552757],[-80.3740742,25.7553334],[-80.3740163,25.7553328],[-80.3740167,25.7553066],[-80.3735802,25.7553022],[-80.3735814,25.7552111],[-80.3734981,25.7552102],[-80.3734973,25.755273],[-80.3734364,25.7552724],[-80.3734364,25.755349],[-80.3734346,25.7554167],[-80.373375,25.7554161],[-80.3733712,25.7557227],[-80.3733709,25.7557484],[-80.3735587,25.7557503],[-80.3735576,25.7558392],[-80.3736216,25.7558398],[-80.3736222,25.7557915],[-80.3739435,25.7557947],[-80.373943,25.7558399],[-80.3740103,25.7558406],[-80.3740115,25.7557498],[-80.3741476,25.7557512],[-80.3741933,25.7557516]]]}},{"type":"Feature","properties":{"code":"DM","osm_way":112681073},"geometry":{"type":"Polygon","coordinates":[[[-80.3749078,25.7562438],[-80.3749711,25.7562048],[-80.3750223,25.7562509],[-80.3750971,25.7561835],[-80.3750971,25.7561232],[-80.3750301,25.7560629],[-80.3749904,25.7560924],[-80.3749632,25.7561126],[-80.3749083,25.7560735],[-80.3749089,25.7560356],[-80.3749129,25.7557824],[-80.3747415,25.7557835],[-80.3747417,25.7558043],[-80.3746117,25.7558052],[-80.3746085,25.7558051],[-80.3746083,25.7557843],[-80.3745002,25.755784],[-80.374456,25.7557839],[-80.3744327,25.7557838],[-80.3744319,25.7560285],[-80.3744317,25.7560726],[-80.3743574,25.7561262],[-80.3743589,25.7561571],[-80.3743609,25.7561968],[-80.3744312,25.7562417],[-80.3744311,25.7562747],[-80.3744303,25.7565128],[-80.3744302,25.7565305],[-80.3744947,25.7565307],[-80.3746182,25.756531],[-80.3746281,25.756531],[-80.3747201,25.7565313],[-80.3749068,25.7565318],[-80.3749069,25.7565143],[-80.3749077,25.756278],[-80.3749078,25.7562438]]]}},{"type":"Feature","properties":{"code":"GC","osm_way":112682396},"geometry":{"type":"Polygon","coordinates":[[[-80.3721824,25.7569184],[-80.3721824,25.7569259],[-80.3721384,25.7569261],[-80.3721383,25.756918],[-80.3720949,25.7569135],[-80.3720511,25.7569041],[-80.3720088,25.75689],[-80.3719797,25.7568783],[-80.3719799,25.7568901],[-80.3719413,25.7568902],[-80.3719426,25.756855],[-80.371953,25.7568551],[-80.371959,25.756622],[-80.3719416,25.7566217],[-80.3719426,25.7565668],[-80.3722487,25.7565701],[-80.3722524,25.7563977],[-80.3724764,25.7563989],[-80.3724777,25.7563675],[-80.372178,25.7563659],[-80.37218,25.7563454],[-80.3722145,25.7563143],[-80.3722393,25.756279],[-80.3722541,25.7562397],[-80.3722568,25.7561881],[-80.3722454,25.7561452],[-80.3722185,25.7561002],[-80.3722182,25.7560718],[-80.3722323,25.7560528],[-80.3722558,25.7560389],[-80.3722886,25.7560351],[-80.3724399,25.7560346],[-80.3724978,25.7560862],[-80.3725833,25.7560084],[-80.3725946,25.7559981],[-80.3726142,25.7560156],[-80.3726729,25.7560161],[-80.3726738,25.7559287],[-80.3726741,25.7559004],[-80.3725159,25.755899],[-80.3725163,25.7558652],[-80.372431,25.7558645],[-80.3724322,25.7557498],[-80.3722168,25.755748],[-80.3721266,25.755748],[-80.3721229,25.755586],[-80.3721306,25.7555859],[-80.3721293,25.7555621],[-80.372109,25.7555429],[-80.3721085,25.7555171],[-80.3721199,25.7555081],[-80.3721294,25.7554995],[-80.3721582,25.7555],[-80.3721763,25.7555204],[-80.3724996,25.7555231],[-80.3724998,25.7555129],[-80.372853,25.7555159],[-80.3731035,25.755518],[-80.3731031,25.7555533],[-80.3731366,25.7555536],[-80.3731363,25.7555848],[-80.3731862,25.7555852],[-80.3731836,25.7558371],[-80.3731325,25.7558366],[-80.3731321,25.7558706],[-80.3730995,25.7558703],[-80.3730991,25.755904],[-80.3729325,25.7559026],[-80.3729312,25.7560291],[-80.3729309,25.7560572],[-80.3730172,25.7560579],[-80.3730168,25.7560941],[-80.3731337,25.7560951],[-80.3731327,25.7561925],[-80.3731393,25.7561926],[-80.3731381,25.7563069],[-80.373138,25.75632],[-80.3734178,25.7563224],[-80.3735866,25.7564843],[-80.373501,25.7565619],[-80.3734797,25.7565812],[-80.3734927,25.7565926],[-80.3735008,25.7565997],[-80.3733315,25.7567555],[-80.3732614,25.7568177],[-80.3732007,25.7568627],[-80.3731347,25.7568997],[-80.3731277,25.7568923],[-80.3731064,25.7569083],[-80.3730929,25.7568991],[-80.3730777,25.7568893],[-80.3730561,25.7569056],[-80.3730313,25.7569155],[-80.3730054,25.7569143],[-80.3729816,25.7569062],[-80.3729629,25.7568944],[-80.3729468,25.7568739],[-80.3729414,25.7568548],[-80.3729474,25.7568307],[-80.3729706,25.7568017],[-80.372931,25.7567543],[-80.3728983,25.7567548],[-80.3728546,25.7567555],[-80.3728543,25.756879],[-80.3723818,25.7568803],[-80.3723817,25.7568911],[-80.372342,25.7568912],[-80.372342,25.7568803],[-80.3723321,25.7568803],[-80.3723155,25.7568887],[-80.3722733,25.7569031],[-80.3722296,25.7569129],[-80.3721824,25.7569184]]]}},{"type":"Feature","properties":{"code":"AHC3","osm_way":112762941},"geometry":{"type":"Polygon","coordinates":[[[-80.3717321,25.7589367],[-80.3713987,25.7586409],[-80.3713077,25.7585632],[-80.3712841,25.7585425],[-80.3713296,25.7585006],[-80.3711262,25.7583216],[-80.3709954,25.7584422],[-80.371226,25.7586424],[-80.3713023,25.7587121],[-80.3711982,25.758808],[-80.371347,25.7589389],[-80.3715971,25.759159],[-80.3716231,25.7591351],[-80.3716454,25.7591547],[-80.3717231,25.7590831],[-80.3717008,25.7590635],[-80.3717532,25.7590152],[-80.3716989,25.7589673],[-80.3717157,25.7589518],[-80.3717321,25.7589367]]]}},{"type":"Feature","properties":{"code":"LC","osm_way":112681029},"geometry":{"type":"Polygon","coordinates":[[[-80.3772892,25.7566662],[-80.3772892,25.7566618],[-80.377288,25.7564366],[-80.3771172,25.7564373],[-80.3770089,25.7564378],[-80.37701,25.7566524],[-80.3770101,25.7566624],[-80.3770101,25.7566674],[-80.3772892,25.7566662]]]}},{"type":"Feature","properties":{"code":"OBCC","osm_way":112681024},"geometry":{"type":"Polygon","coordinates":[[[-80.3805125,25.7571761],[-80.3805136,25.7570472],[-80.3804155,25.7570466],[-80.3804172,25.7568323],[-80.3800392,25.7568299],[-80.3800361,25.7567856],[-80.380024,25.7567723],[-80.3800884,25.7567143],[-80.3801031,25.756724],[-80.3801863,25.7566479],[-80.3801957,25.756634],[-80.3801923,25.7566062],[-80.3801789,25.7565881],[-80.3801581,25.7565815],[-80.3801427,25.756576],[-80.3801246,25.7565782],[-80.3801072,25.7565851],[-80.3800347,25.7566515],[-80.3799704,25.756666],[-80.3799342,25.7566926],[-80.3798745,25.7566388],[-80.3798765,25.7566141],[-80.3798695,25.7566023],[-80.3798587,25.7565923],[-80.3798473,25.7565887],[-80.3798235,25.7565881],[-80.3798074,25.7565758],[-80.3794228,25.7565796],[-80.3793591,25.7565836],[-80.3793341,25.7566119],[-80.3793361,25.7566436],[-80.3793257,25.7566522],[-80.3792923,25.7566828],[-80.3792588,25.7567135],[-80.3792385,25.7566955],[-80.3792191,25.7567133],[-80.3791916,25.7566929],[-80.3791907,25.7567736],[-80.3791873,25.7570706],[-80.3793723,25.7572607],[-80.3794311,25.7572606],[-80.3794318,25.757316],[-80.3798164,25.7573122],[-80.3798158,25.7572685],[-80.3798646,25.7572686],[-80.379894,25.7572402],[-80.3800405,25.7570983],[-80.3800374,25.7570598],[-80.380287,25.7570607],[-80.3803244,25.7570617],[-80.3803235,25.7571749],[-80.3805125,25.7571761]]]}},{"type":"Feature","properties":{"code":"PPFAM","osm_way":112768020},"geometry":{"type":"Polygon","coordinates":[[[-80.373109,25.7537765],[-80.373101,25.7541268],[-80.3729931,25.7542241],[-80.3729696,25.7542452],[-80.3729696,25.753974],[-80.3729696,25.7538838],[-80.3729696,25.7537741],[-80.3729964,25.7536678],[-80.3730393,25.7535905],[-80.373093,25.753518],[-80.3731681,25.7534697],[-80.3732539,25.7534359],[-80.3733558,25.7534262],[-80.37344,25.7534277],[-80.373498,25.7534287],[-80.373109,25.7537765]]]}},{"type":"Feature","properties":{"code":"PG6","osm_way":112781054},"geometry":{"type":"Polygon","coordinates":[[[-80.3739972,25.760609],[-80.3751102,25.7606084],[-80.3751101,25.7605197],[-80.37511,25.7603661],[-80.37511,25.760319],[-80.37511,25.7602862],[-80.3751096,25.759761],[-80.3745981,25.7597613],[-80.3742565,25.7597614],[-80.3740885,25.7597615],[-80.3740389,25.7597616],[-80.3739966,25.7597616],[-80.3739969,25.7602109],[-80.3739971,25.7605158],[-80.3739972,25.7605933],[-80.3739972,25.760609]]]}},{"type":"Feature","properties":{"code":"CASE","osm_way":112682385},"geometry":{"type":"Polygon","coordinates":[[[-80.3741624,25.7593008],[-80.3741626,25.7591929],[-80.3742682,25.759193],[-80.3742684,25.7591244],[-80.3742857,25.7591244],[-80.3742859,25.7590396],[-80.3742859,25.7589895],[-80.3743043,25.7589895],[-80.3743044,25.7589306],[-80.3742614,25.7589306],[-80.3742619,25.7586685],[-80.3741403,25.7586683],[-80.3741403,25.7586428],[-80.3740236,25.7586426],[-80.3739832,25.7586426],[-80.3739829,25.7587649],[-80.3739825,25.7589461],[-80.3738754,25.758946],[-80.3737713,25.7589458],[-80.3737717,25.7587657],[-80.3737719,25.7586416],[-80.3737339,25.7586416],[-80.3736214,25.7586414],[-80.3736213,25.7586708],[-80.3734983,25.7586706],[-80.3734976,25.7590313],[-80.3734973,25.7592172],[-80.3735888,25.7592173],[-80.3735886,25.759327],[-80.3737371,25.7593272],[-80.3737374,25.7591353],[-80.3738292,25.7591354],[-80.3740172,25.7591356],[-80.3740169,25.7593006],[-80.3741624,25.7593008]]]}},{"type":"Feature","properties":{"code":"AHC4","osm_way":333091720},"geometry":{"type":"Polygon","coordinates":[[[-80.372756,25.7594076],[-80.3725372,25.7594066],[-80.3724146,25.7594061],[-80.3722129,25.7594052],[-80.3717526,25.7594032],[-80.3717391,25.7594031],[-80.3717391,25.7593946],[-80.3717393,25.7593675],[-80.37174,25.75924],[-80.3717665,25.7592401],[-80.3717668,25.7591774],[-80.3717669,25.7591664],[-80.3719443,25.7591672],[-80.3722132,25.7591684],[-80.3723273,25.7591689],[-80.3724292,25.7591693],[-80.3727521,25.7591707],[-80.3727517,25.7592427],[-80.3727569,25.7592427],[-80.372756,25.7594076]]]}},{"type":"Feature","properties":{"code":"PG5","osm_way":147575549},"geometry":{"type":"Polygon","coordinates":[[[-80.3722021,25.7605838],[-80.3722023,25.7605052],[-80.3722031,25.7601809],[-80.3722036,25.7600024],[-80.3722043,25.7597234],[-80.3710897,25.7597211],[-80.3710882,25.7603161],[-80.3710877,25.760513],[-80.3710875,25.7605816],[-80.3712838,25.760582],[-80.3722021,25.7605838]]]}},{"type":"Feature","properties":{"code":"SIPA1","osm_way":112681050},"geometry":{"type":"Polygon","coordinates":[[[-80.3763696,25.7567011],[-80.3763711,25.7565887],[-80.3763765,25.7563488],[-80.3763783,25.7562702],[-80.3761916,25.7562702],[-80.3761887,25.7563595],[-80.3760895,25.7564252],[-80.3757861,25.7564016],[-80.3757861,25.7566485],[-80.3760778,25.7566065],[-80.376177,25.7566827],[-80.3763696,25.7567011]]]}},{"type":"Feature","properties":{"code":"INV1","osm_way":1288079720},"geometry":{"type":"Polygon","coordinates":[[[-80.3697954,25.7609515],[-80.3699125,25.7608146],[-80.3698866,25.7607967],[-80.3698892,25.7607952],[-80.3697178,25.7606761],[-80.3697227,25.7606704],[-80.3693606,25.7604188],[-80.3693123,25.7604752],[-80.3689599,25.7602305],[-80.36882,25.7603938],[-80.3696632,25.7609794],[-80.3696927,25.760945],[-80.3697402,25.760978],[-80.369775,25.7609373],[-80.3697954,25.7609515]]]}},{"type":"Feature","properties":{"code":"MARC","osm_way":112768016},"geometry":{"type":"Polygon","coordinates":[[[-80.3736378,25.7547229],[-80.3736421,25.7545255],[-80.3732005,25.7545221],[-80.3732032,25.7544424],[-80.3732408,25.7544038],[-80.3732408,25.7543506],[-80.3732166,25.7543071],[-80.3731576,25.754283],[-80.3730476,25.7543168],[-80.3730155,25.7543627],[-80.3730159,25.754368],[-80.3730181,25.7543989],[-80.3730584,25.7544303],[-80.3730611,25.7545149],[-80.3729759,25.7545312],[-80.3729725,25.7547172],[-80.3736378,25.7547229]]]}},{"type":"Feature","properties":{"code":"VH","osm_way":112682378},"geometry":{"type":"Polygon","coordinates":[[[-80.3745722,25.7583256],[-80.3745723,25.7582655],[-80.3746336,25.7582655],[-80.3746687,25.7582656],[-80.3746685,25.7583751],[-80.3748438,25.7583752],[-80.3748438,25.7583207],[-80.3748876,25.7583207],[-80.3749042,25.7583207],[-80.3749043,25.7582506],[-80.3749044,25.7581562],[-80.3749358,25.7581562],[-80.374936,25.7577697],[-80.3749779,25.7577697],[-80.374978,25.7576022],[-80.3748453,25.7576021],[-80.3748453,25.7575487],[-80.3746777,25.7575486],[-80.3746777,25.7575988],[-80.3746456,25.7575988],[-80.3745043,25.7575988],[-80.3745043,25.7577198],[-80.3745043,25.7579325],[-80.3745219,25.7579325],[-80.3745219,25.7580606],[-80.3745219,25.7581553],[-80.3744023,25.7581553],[-80.3744023,25.7583751],[-80.374626,25.7583751],[-80.3745722,25.7583256]]]}},{"type":"Feature","properties":{"code":"SIPA2","osm_way":1252957007},"geometry":{"type":"Polygon","coordinates":[[[-80.3763696,25.7567011],[-80.3769384,25.7567353],[-80.3769538,25.7563343],[-80.3769041,25.7563364],[-80.3769381,25.7562698],[-80.3763783,25.7562702],[-80.3763765,25.7563488],[-80.376446,25.7563499],[-80.3765742,25.7565298],[-80.3765309,25.756589],[-80.3763711,25.7565887],[-80.3763696,25.7567011]]]}},{"type":"Feature","properties":{"code":"AHC2","osm_way":112762965},"geometry":{"type":"Polygon","coordinates":[[[-80.371217,25.757895],[-80.3715684,25.7582018],[-80.3713672,25.758383],[-80.3709836,25.7580254],[-80.3711097,25.7578914],[-80.371217,25.757895]]]}},{"type":"Feature","properties":{"code":"SPE","osm_way":112770200},"geometry":{"type":"Polygon","coordinates":[[[-80.3701038,25.7536231],[-80.3700052,25.7535519],[-80.3699948,25.7535636],[-80.3699497,25.7535311],[-80.3699376,25.7535447],[-80.3697953,25.7534419],[-80.3697267,25.7535189],[-80.3698723,25.7536242],[-80.369855,25.7536435],[-80.3698981,25.7536747],[-80.369889,25.7536849],[-80.3699845,25.7537539],[-80.3700094,25.753726],[-80.3700314,25.7537419],[-80.370098,25.7536672],[-80.3700776,25.7536525],[-80.3701038,25.7536231]]]}}]}